[{"OBJECT_NAME":"STARLINK-33818","OBJECT_ID":"2025-071K","EPOCH":"2026-03-09T12:07:07.606560","MEAN_MOTION":15.30184723,"ECCENTRICITY":0.00012152,"INCLINATION":53.1586,"RA_OF_ASC_NODE":140.6377,"ARG_OF_PERICENTER":91.1268,"MEAN_ANOMALY":268.9872,"EPHEMERIS_TYPE":0,"CLASSIFICATION_TYPE":"U","NORAD_CAT_ID":63502,"ELEMENT_SET_NO":999,"REV_AT_EPOCH":5274,"BSTAR":0.00056478664,"MEAN_MOTION_DOT":0.00016397,"MEAN_MOTION_DDOT":0},{"OBJECT_NAME":"GEOSCAN 1 (RS92S1)","OBJECT_ID":"2025-155E","EPOCH":"2026-03-09T22:44:05.846496","MEAN_MOTION":15.28410635,"ECCENTRICITY":0.00087099,"INCLINATION":97.4463,"RA_OF_ASC_NODE":37.403,"ARG_OF_PERICENTER":153.6429,"MEAN_ANOMALY":206.5255,"EPHEMERIS_TYPE":0,"CLASSIFICATION_TYPE":"U","NORAD_CAT_ID":64880,"ELEMENT_SET_NO":999,"REV_AT_EPOCH":6560,"BSTAR":0.00054367431,"MEAN_MOTION_DOT":0.00014993,"MEAN_MOTION_DDOT":0}]
